ONEWEB-0055             
1 45443U 20020V   23364.94584803 -.00000104  00000+0 -32919-3 0  9996
2 45443  87.8955 199.7787 0001521  93.4617 266.6685 13.11413263184750
ONEWEB-0093             
1 45444U 20020W   23365.07166070  .00000557  00000+0  15360-2 0  9994
2 45444  87.8958 199.7326 0001550 102.1637 257.9664 13.11418304184846
ONEWEB-0029             
1 45445U 20020X   23365.47261692  .00000233  00000+0  62211-3 0  9994
2 45445  87.8958 199.6669 0001222  93.7350 266.3918 13.11415962184875
ONEWEB-0068             
1 45446U 20020Y   23365.06599361  .00000370  00000+0  10081-2 0  9996
2 45446  87.8959 199.7322 0001421  97.0485 263.0804 13.11421120184760
ONEWEB-0046             
1 45447U 20020Z   23364.91094140 -.00000727  00000+0 -20877-2 0  9997
2 45447  87.8952 199.7752 0001278  84.6392 275.4881 13.11416489184742
ONEWEB-0063             
1 45448U 20020AA  23365.09275651  .00000146  00000+0  37674-3 0  9993
2 45448  87.8956 199.7421 0001290  75.2409 284.8862 13.11414910184851
ONEWEB-0019             
1 45449U 20020AB  23364.91418545  .00000390  00000+0  10646-2 0  9995
2 45449  87.8963 199.7733 0001639  86.0707 274.0608 13.11420257184674
ONEWEB-0094             
1 45450U 20020AC  23365.06949461 -.00000054  00000+0 -17299-3 0  9991
2 45450  87.9149 184.6172 0001508  94.2759 265.8545 13.17649538187904
ONEWEB-0087             
1 45451U 20020AD  23365.63332377  .00000008  00000+0 -12590-4 0  9995
2 45451  87.8951 199.6153 0001148  96.0439 264.0820 13.11415480184821
ONEWEB-0082             
1 45452U 20020AE  23364.64308639 -.00000276  00000+0 -81399-3 0  9990
2 45452  87.8965 199.8059 0001522  90.6053 269.5250 13.11415604184771
ONEWEB-0050             
1 45453U 20020AF  23365.69588213  .00003911  00000+0  30709-3 0  9991
2 45453  87.9993  71.0043 0021716 319.0660  40.8943 15.00484224206506
ONEWEB-0034             
1 45454U 20020AG  23365.50182901 -.00000536  00000+0 -15484-2 0  9990
2 45454  87.8967 199.6538 0001363  90.1514 269.9770 13.11417239184817
ONEWEB-0060             
1 45455U 20020AH  23365.58624278 -.00000274  00000+0 -81008-3 0  9992
2 45455  87.8963 199.6336 0001311  89.7822 270.3456 13.11418797184782
ONEWEB-0086             
1 45456U 20020AJ  23365.60410426  .00000425  00000+0  11643-2 0  9997
2 45456  87.8965 199.6360 0001196 106.1295 253.9965 13.11418980184833
ONEWEB-0088             
1 45457U 20020AK  23365.04729405 -.00000439  00000+0 -12757-2 0  9990
2 45457  87.8952 199.7197 0001321  90.4953 269.6327 13.11418122184705
ONEWEB-0102             
1 47258U 20100A   23364.99459371  .00000387  00000+0  10400-2 0  9998
2 47258  87.9005 169.5544 0001710  91.9263 268.2061 13.12442589146780
ONEWEB-0109             
1 47259U 20100B   23365.45997285  .00000459  00000+0  12415-2 0  9990
2 47259  87.9000 169.4253 0001636  95.2053 264.9263 13.12442916146672
ONEWEB-0110             
1 47260U 20100C   23365.48377215 -.00000251  00000+0 -73377-3 0  9997
2 47260  87.8999 169.4352 0001682  99.5008 260.6311 13.12441855146845
ONEWEB-0111             
1 47261U 20100D   23364.90724299  .00000347  00000+0  92981-3 0  9998
2 47261  87.8998 169.5373 0001608  97.4565 262.6746 13.12445464146600
ONEWEB-0114             
1 47262U 20100E   23364.93741173 -.00000024  00000+0 -10253-3 0  9998
2 47262  87.8999 169.5538 0001924  82.4471 277.6876 13.12441933146568
ONEWEB-0117             
1 47263U 20100F   23365.46313113  .00000301  00000+0  80159-3 0  9995
2 47263  87.9006 169.4180 0001477  97.6345 262.4951 13.12440532146641
ONEWEB-0118             
1 47264U 20100G   23364.88499881 -.00000319  00000+0 -92078-3 0  9992
2 47264  87.9005 169.5376 0001657  73.3306 286.8005 13.12443056146764
ONEWEB-0119             
1 47265U 20100H   23364.98982984  .00000449  00000+0  12135-2 0  9992
2 47265  87.9004 169.5551 0001560  98.8096 261.3210 13.12443156146756
ONEWEB-0120             
1 47266U 20100J   23364.94297094 -.00000235  00000+0 -68746-3 0  9995
2 47266  87.9006 169.5542 0001580  91.5760 268.5550 13.12439433146770
ONEWEB-0121             
1 47267U 20100K   23364.92473023  .00000439  00000+0  11850-2 0  9999
2 47267  87.9001 169.5540 0001489 103.1427 256.9868 13.12442645146684
ONEWEB-0122             
1 47268U 20100L   23365.45347415  .00000485  00000+0  13132-2 0  9990
2 47268  87.9002 169.4540 0001626  95.3477 264.7837 13.12443386146669
ONEWEB-0123             
1 47269U 20100M   23365.83003271  .00000319  00000+0  85273-3 0  9994
2 47269  87.9004 169.3872 0001555  95.4448 264.6858 13.12442747146852
ONEWEB-0124             
1 47270U 20100N   23365.51397069  .00000216  00000+0  56422-3 0  9992
2 47270  87.9005 169.4456 0001586 108.4114 251.7187 13.12446498146694
ONEWEB-0125             
1 47271U 20100P   23364.87864968 -.00000430  00000+0 -12313-2 0  9998
2 47271  87.9006 169.5288 0001108  89.9962 270.1293 13.12443693146679
ONEWEB-0126             
1 47272U 20100Q   23365.51635901  .00000225  00000+0  58916-3 0  9994
2 47272  87.9002 169.4158 0001658  91.1719 268.9599 13.12445181146821
ONEWEB-0127             
1 47273U 20100R   23364.94377149 -.00000252  00000+0 -73707-3 0  9995
2 47273  87.9005 169.5514 0001597  92.0313 268.0998 13.12443462146772
ONEWEB-0128             
1 47274U 20100S   23364.88975498 -.00000455  00000+0 -13009-2 0  9993
2 47274  87.9012 169.5554 0001694 104.9446 255.1870 13.12444732146781
ONEWEB-0129             
1 47275U 20100T   23364.94535058 -.00000351  00000+0 -10119-2 0  9999
2 47275  87.8956 169.5230 0002900  68.8256 291.3182 13.12440657146721
ONEWEB-0130             
1 47276U 20100U   23364.89772120  .00000055  00000+0  11887-3 0  9990
2 47276  87.9002 169.5417 0001655  96.1314 264.0003 13.12445965146688
ONEWEB-0131             
1 47277U 20100V   23365.50442113 -.00000127  00000+0 -38938-3 0  9994
2 47277  87.9019 169.4313 0001538 100.3315 259.7987 13.12445618146801
ONEWEB-0132             
1 47278U 20100W   23364.92312870  .00000391  00000+0  10521-2 0  9994
2 47278  87.9019 169.5479 0001312  99.6856 260.4420 13.12442012146622
ONEWEB-0133             
1 47279U 20100X   23365.47265556  .00000142  00000+0  36005-3 0  9994
2 47279  87.9000 169.4480 0001521 101.5580 258.5720 13.12442837146854
ONEWEB-0134             
1 47280U 20100Y   23364.90882521  .00000373  00000+0  10027-2 0  9991
2 47280  87.8998 169.5492 0001783  99.8245 260.3085 13.12443363146751
ONEWEB-0135             
1 47281U 20100Z   23365.48694752  .00002348  00000+0  64904-2 0  9990
2 47281  87.9007 169.4412 0001718  95.2017 264.9308 13.12427257146853
ONEWEB-0136             
1 47282U 20100AA  23364.89929241  .00000088  00000+0  20948-3 0  9999
2 47282  87.9004 169.5260 0002056  98.4525 261.6837 13.12444658146707
ONEWEB-0137             
1 47283U 20100AB  23365.54254516  .00000272  00000+0  72154-3 0  9990
2 47283  87.9002 169.4310 0001590  90.2153 269.9157 13.12441393146697
ONEWEB-0138             
1 47284U 20100AC  23365.52189833  .00000417  00000+0  11230-2 0  9996
2 47284  87.9000 169.4477 0001614  94.6567 265.4746 13.12443351146774
ONEWEB-0139             
1 47285U 20100AD  23365.49331397 -.00000347  00000+0 -99869-3 0  9996
2 47285  87.9004 169.4174 0001558  97.4937 262.6369 13.12444966146843
ONEWEB-0140             
1 47286U 20100AE  23365.51555306  .00000215  00000+0  56259-3 0  9996
2 47286  87.9002 169.4239 0001730  98.9445 261.1879 13.12443629146807
ONEWEB-0141             
1 47287U 20100AF  23365.53542307  .00000466  00000+0  12594-2 0  9997
2 47287  87.9004 169.4170 0001308  89.5858 270.5421 13.12443525146801
ONEWEB-0142             
1 47288U 20100AG  23365.83395585  .00000471  00000+0  12745-2 0  9999
2 47288  87.9003 169.3509 0001697  86.9380 273.1943 13.12440023146839
ONEWEB-0143             
1 47289U 20100AH  23364.94851818 -.00000396  00000+0 -11369-2 0  9996
2 47289  87.9003 169.5448 0001406  96.0233 264.1055 13.12441016146692
ONEWEB-0144             
1 47290U 20100AJ  23364.92154346  .00000426  00000+0  11501-2 0  9998
2 47290  87.9002 169.5345 0001865  87.8278 272.3064 13.12441626146615
ONEWEB-0145             
1 47291U 20100AK  23364.96917457 -.00000160  00000+0 -47981-3 0  9992
2 47291  87.9003 169.5486 0001613  93.0220 267.1093 13.12444029146816
ONEWEB-0146             
1 47292U 20100AL  23364.88816242 -.00000411  00000+0 -11770-2 0  9999
2 47292  87.8921 169.5492 0001086 111.0428 249.0817 13.12444174146710
ONEWEB-0147             
1 47293U 20100AM  23365.46471800  .00000273  00000+0  72319-3 0  9993
2 47293  87.9003 169.4326 0001828  99.1972 260.9364 13.12441541146682
ONEWEB-0115             
1 48042U 21025A   23365.81301848  .00000118  00000+0  28694-3 0  9991
2 48042  87.8996 139.0452 0001494 111.1800 248.9489 13.13472546135673
ONEWEB-0152             
1 48043U 21025B   23365.44483605  .00000352  00000+0  92998-3 0  9991
2 48043  87.9002 139.1089 0001594 105.2283 254.9022 13.13471133135581
ONEWEB-0153             
1 48044U 21025C   23365.34644982 -.00000017  00000+0 -80948-4 0  9991
2 48044  87.8992 139.1127 0001604 100.4670 259.6640 13.13470736135565
ONEWEB-0154             
1 48045U 21025D   23365.34326174 -.00000066  00000+0 -21681-3 0  9994
2 48045  87.9001 139.1294 0001594 104.1262 256.0045 13.13471404135528
ONEWEB-0116             
1 48046U 21025E   23364.92746053  .00000064  00000+0  14089-3 0  9990
2 48046  87.8997 139.1758 0001384 107.6701 252.4579 13.13468297135607
ONEWEB-0150             
1 48047U 21025F   23365.35913997  .00000337  00000+0  88725-3 0  9993
2 48047  87.8999 139.1189 0001530  95.8758 264.2545 13.13469419135556
ONEWEB-0107             
1 48048U 21025G   23365.43689980  .00000270  00000+0  70423-3 0  9997
2 48048  87.8995 139.1020 0001801  99.5888 260.5445 13.13473306135540
ONEWEB-0101             
1 48049U 21025H   23364.94332945 -.00000253  00000+0 -72711-3 0  9994
2 48049  87.8997 139.2060 0001681 104.5644 255.5672 13.13471338135450
